[{"OBJECT_NAME":"STARLINK-5239","OBJECT_ID":"2022-141AC","EPOCH":"2026-03-09T23:00:49.271904","MEAN_MOTION":15.08829773,"ECCENTRICITY":0.00012816,"INCLINATION":53.2192,"RA_OF_ASC_NODE":2.5328,"ARG_OF_PERICENTER":92.887,"MEAN_ANOMALY":267.2269,"EPHEMERIS_TYPE":0,"CLASSIFICATION_TYPE":"U","NORAD_CAT_ID":54183,"ELEMENT_SET_NO":999,"REV_AT_EPOCH":18590,"BSTAR":-0.0001368178,"MEAN_MOTION_DOT":-2.464e-5,"MEAN_MOTION_DDOT":0},{"OBJECT_NAME":"CZ-6A DEB","OBJECT_ID":"2024-140RN","EPOCH":"2026-03-09T09:36:23.350464","MEAN_MOTION":14.99974811,"ECCENTRICITY":0.0047719,"INCLINATION":88.1445,"RA_OF_ASC_NODE":217.6461,"ARG_OF_PERICENTER":172.1525,"MEAN_ANOMALY":188.0467,"EPHEMERIS_TYPE":0,"CLASSIFICATION_TYPE":"U","NORAD_CAT_ID":61168,"ELEMENT_SET_NO":999,"REV_AT_EPOCH":8322,"BSTAR":0.0063622011,"MEAN_MOTION_DOT":0.00081758,"MEAN_MOTION_DDOT":0}]
